OBJECT_NAME,OBJECT_ID,EPOCH,MEAN_MOTION,ECCENTRICITY,INCLINATION,RA_OF_ASC_NODE,ARG_OF_PERICENTER,MEAN_ANOMALY,EPHEMERIS_TYPE,CLASSIFICATION_TYPE,NORAD_CAT_ID,ELEMENT_SET_NO,REV_AT_EPOCH,BSTAR,MEAN_MOTION_DOT,MEAN_MOTION_DDOT
SPACEMOBILE-003,2024-163A,2026-07-24T13:06:05.110272,15.20666875,.00035855,52.9691,137.6443,223.3637,136.7075,0,U,61045,999,10345,.8959348E-4,.1667E-4,0
SPACEMOBILE-005,2024-163B,2026-07-24T04:49:11.514144,15.20600133,.00080824,52.9735,139.1924,222.5536,137.4832,0,U,61046,999,10339,.84903061E-3,.1858E-3,0
SPACEMOBILE-001,2024-163C,2026-07-24T04:46:38.128224,15.20668192,.00065595,52.9700,138.9039,220.2350,139.8159,0,U,61047,999,10339,.521716E-5,-.212E-5,0
SPACEMOBILE-002,2024-163D,2026-07-24T12:17:41.274528,15.20490764,.00042182,52.9782,137.5118,218.1890,141.8806,0,U,61048,999,10344,.10103582E-2,.22101E-3,0
SPACEMOBILE-004,2024-163E,2026-07-24T05:33:01.727136,15.20638649,.00052852,52.9740,138.5752,260.6163,99.4233,0,U,61049,999,10340,.1174208E-2,.25866E-3,0
SPACEMOBILE-006,2025-309A,2026-07-24T07:01:23.947392,15.18701235,.00092587,52.9950,161.6556,247.0863,112.9154,0,U,67232,999,3223,.19277447E-3,.3733E-4,0
SPACEMOBILE-008,2026-139A,2026-07-24T03:18:17.437248,15.12820096,.00053914,52.9952,94.8071,76.5282,283.6310,0,U,69589,999,557,.6999687E-4,.943E-5,0
SPACEMOBILE-009,2026-139B,2026-07-24T01:46:51.767328,15.12720385,.00056302,52.9946,95.1172,74.3539,285.8073,0,U,69590,999,556,.10337096E-3,.1531E-4,0
SPACEMOBILE-010,2026-139C,2026-07-24T14:33:55.620864,15.12559721,.00056548,52.9949,92.7463,68.0283,292.1308,0,U,69591,999,565,.11257304E-3,.1686E-4,0
BLUEWALKER-3,2022-111AL,2026-07-24T08:06:54.076032,15.38689191,.00048447,53.2272,219.4999,305.1345,54.9206,0,U,53807,999,21592,.16856584E-3,.615E-4,0
